[{"OBJECT_NAME":"STARLINK-30375","OBJECT_ID":"2023-131A","EPOCH":"2026-03-09T22:52:41.457504","MEAN_MOTION":15.26705495,"ECCENTRICITY":0.00014103,"INCLINATION":43.0015,"RA_OF_ASC_NODE":155.9024,"ARG_OF_PERICENTER":261.0361,"MEAN_ANOMALY":99.0331,"EPHEMERIS_TYPE":0,"CLASSIFICATION_TYPE":"U","NORAD_CAT_ID":57732,"ELEMENT_SET_NO":999,"REV_AT_EPOCH":14014,"BSTAR":4.0278757e-5,"MEAN_MOTION_DOT":8.2e-6,"MEAN_MOTION_DDOT":0},{"OBJECT_NAME":"HERMES-4","OBJECT_ID":"2025-052BP","EPOCH":"2026-03-09T22:05:58.629408","MEAN_MOTION":15.26796135,"ECCENTRICITY":0.00026523,"INCLINATION":97.4,"RA_OF_ASC_NODE":323.461,"ARG_OF_PERICENTER":154.9526,"MEAN_ANOMALY":205.1842,"EPHEMERIS_TYPE":0,"CLASSIFICATION_TYPE":"U","NORAD_CAT_ID":63833,"ELEMENT_SET_NO":999,"REV_AT_EPOCH":5478,"BSTAR":0.00081237216,"MEAN_MOTION_DOT":0.00021364,"MEAN_MOTION_DDOT":0}]
